Name|Phone_Number|Street_Address|City|Zip_Code|Country
Jakeem Hatfield|1-321-585-4266|3829 Sed, Street|Hattersheim am Main|4961 RI|Cocos (Keeling) Islands
Russell Mckay|1-416-657-2503|Ap #841-3406 Amet Avenue|Beaumont|JW0Y 8VY|Finland
Emerson Mosley|1-177-454-3885|8041 Purus St.|Curanilahue|00758|Bulgaria
Jared Mckinney|1-537-292-7378|Ap #219-690 Magna. Street|Tolve|06104|Spain
Preston Bauer|1-583-351-9671|P.O. Box 742, 5839 Turpis. Rd.|Meißen|639541|Timor-Leste
Noah Mcconnell|1-319-208-4123|P.O. Box 976, 5302 Nunc St.|Guadalupe|26967|Burundi
Grant Garner|1-425-631-9514|743-8608 Viverra. St.|San Cesario di Lecce|44046|Eritrea
Camden Mcclain|1-572-201-5866|Ap #635-8324 Class Avenue|Pöttsching|IO8 9HM|United Arab Emirates
Macaulay Gordon|1-473-862-1742|P.O. Box 466, 191 Iaculis St.|Castel Volturno|2434|Romania
Vladimir Short|1-555-386-1228|4695 Eget, Rd.|San Luca|31840|Hungary
Paul Farrell|1-834-733-2135|Ap #256-1295 Elit, Street|Breda|48319|Lebanon
Galvin Johnston|1-996-218-0984|572-3461 Facilisi. Road|Fontaine-Valmont|2488|Guyana
Wade Powers|1-782-135-7888|Ap #950-4938 Phasellus Rd.|Jabbeke|734090|Mali
Upton Rosa|1-282-454-5089|P.O. Box 632, 6142 Aliquet Ave|Périgueux|L3 6GP|Tokelau
Nathaniel Cannon|1-177-958-5398|Ap #958-5329 Donec Street|Piovene Rocchette|10581|Belgium
Alec Johns|1-756-517-0737|Ap #757-7554 Aliquam Av.|Laces/Latsch|2596|Namibia
Jack Ochoa|1-410-588-9018|P.O. Box 828, 3099 Auctor, Street|North Bay|4061|Gambia
Steven Alston|1-648-483-9903|444-1536 Auctor, Av.|Duluth|7050|Bonaire, Sint Eustatius and Saba
Raja Boone|1-660-437-6818|8712 Vel, Rd.|Bridgend|28155|Senegal
Jeremy Peters|1-152-347-7103|454-9094 Nisi. Street|Kircudbright|78028|Armenia
Timothy Oliver|1-525-497-2563|P.O. Box 392, 439 Convallis Ave|Palmerston|86308|Austria
Julian Zamora|1-671-430-3890|439 Ac St.|Poederlee|12195|Tonga
Alexander Byrd|1-527-955-8414|117-4313 Nec, Road|Genova|91241-804|Belgium
Colorado Martinez|1-532-792-6722|816-6849 Et Street|Surat|0374 FK|Monaco
Hamish Greene|1-604-983-1147|P.O. Box 881, 5176 Tristique Road|LaSalle|99804|Bulgaria
Fuller Higgins|1-333-102-4646|P.O. Box 319, 3721 Ante Street|Santarcangelo di Romagna|61117|Bahrain
Arden Valenzuela|1-583-309-0002|3636 Aliquam Street|Tortel|77612|Greece
Harding Good|1-293-504-0543|9669 Odio, Road|Muiden|5739|Cape Verde
Raja Mathis|1-650-405-0942|P.O. Box 589, 9342 Quis Rd.|Täby|42242|Seychelles
Martin Adkins|1-523-404-7275|755-6242 Nec St.|Cuddalore|1566 PT|Congo, the Democratic Republic of the
Kevin Watson|1-269-615-9691|779-5840 Sed Street|Mainz|423808|El Salvador
Kadeem Duran|1-868-666-9925|Ap #952-6150 Vitae St.|Labrecque|24254|Madagascar
Baxter Beck|1-137-601-7760|916-8613 Facilisis Rd.|Tallahassee|3584|Andorra
Tate Bryant|1-273-416-2267|975-3783 Nunc Ave|Quilaco|85633-478|Rwanda
Kasimir Mcclain|1-258-480-8217|Ap #822-2956 Eu Ave|Sant'Angelo Limosano|5749|Belize
Dennis Hubbard|1-149-565-8215|6511 Lorem, St.|Herenthout|11311|Ireland
Flynn Ball|1-259-329-9922|623-7021 Vulputate, Av.|Houtvenne|76954|Czech Republic
Norman Barlow|1-292-747-9333|Ap #949-3088 Eu Street|Haddington|98340|Uganda
Barclay Lindsay|1-214-371-8914|P.O. Box 634, 9240 Dictum Ave|Rouyn-Noranda|07332|Mali
Tyrone Manning|1-912-704-4323|3636 Nunc Rd.|Montreuil|56112|Wallis and Futuna
Ivor Barry|1-618-253-5344|684-4163 Vehicula. Ave|Frasnes-lez-Gosselies|48713|Lithuania
Thomas Contreras|1-314-647-8604|P.O. Box 835, 6292 Est Road|Jupille-sur-Meuse|22869|Montserrat
Octavius Green|1-333-312-8871|P.O. Box 226, 9633 Semper Rd.|La Reina|52633|Gibraltar
Uriel Watkins|1-625-357-8017|9124 Scelerisque St.|Versailles|66-797|Denmark
Gray Vazquez|1-431-966-4550|3169 Molestie Street|Duncan|209924|Central African Republic
Dieter Noble|1-494-289-7393|1087 Mollis Avenue|Malloa|7716|Qatar
Elliott Reeves|1-487-492-8537|Ap #498-3646 Rutrum St.|Lesve|85774|Iran
Tyrone Mathis|1-329-215-2651|4487 Sed Rd.|Nasino|26892-716|Solomon Islands
Samuel Mays|1-919-921-5747|P.O. Box 370, 5614 Magna. Av.|Vichuquén|62523|Burundi
Asher Sullivan|1-729-831-7751|Ap #705-5852 Mauris Rd.|Anamur|49523-278|Botswana
Tiger Potter|1-118-511-5202|4784 Et Rd.|Hekelgem|91-555|Burkina Faso
Tanek Wiggins|1-533-254-4996|Ap #556-8750 Molestie Avenue|Cwmbran|5186|Myanmar
Brady Mathews|1-850-886-4327|Ap #349-5652 Sem Rd.|Haut-Ittre|06874|Northern Mariana Islands
Fuller Rich|1-528-192-2456|Ap #521-8949 Laoreet Street|Carterton|72799|Pitcairn Islands
Darius Dorsey|1-380-239-2641|1454 Nullam Av.|Latronico|916944|Iceland
Amery Bush|1-500-867-9573|8920 Amet Avenue|San Rafael Abajo|23342|Cook Islands
Knox White|1-931-223-0611|342-4383 Tempor Street|Les Bulles|885455|Singapore
Donovan Hicks|1-352-907-5562|3717 Etiam St.|Cochrane|57006|Croatia
Jordan Sherman|1-897-351-2034|9821 Iaculis Rd.|Henley-on-Thames|171580|Tunisia
Sylvester Compton|1-321-576-6252|Ap #286-2725 Ultricies Ave|Quispamsis|V8Y 4M0|Philippines
Kevin Johnston|1-815-907-7427|4720 Placerat, Road|León|06-445|Romania
Salvador Valdez|1-216-444-5797|1174 Tellus St.|Manoppello|70317|Turkey
Keane Walsh|1-771-948-3732|6941 Nibh Road|Horsham|426453|Moldova
Phelan Scott|1-605-232-3291|4097 Consequat Ave|Narbolia|50819|Rwanda
Igor Walter|1-468-347-1856|946-2781 Lobortis Road|Cincinnati|Z30 5ZD|Antigua and Barbuda
Herrod Powers|1-795-860-2588|431-3310 Mauris Rd.|Nicolosi|17175|Mongolia
Octavius Cobb|1-646-705-0288|P.O. Box 944, 760 Risus. Rd.|João Pessoa|2048|Ireland
Plato Justice|1-654-930-5008|756-2415 Ultrices Rd.|Geel|2136|Cambodia
Caesar Franks|1-121-206-7616|7998 Rhoncus. Rd.|Amberloup|24576|Andorra
William Simpson|1-782-252-5068|Ap #659-7833 Ipsum Rd.|Great Falls|247187|United States Minor Outlying Islands
Addison Brewer|1-549-734-8569|6407 Vivamus St.|Filey|55-710|Antarctica
Talon Oconnor|1-686-775-3549|Ap #169-3925 Turpis. Street|Melbourne|60307|Lebanon
Scott Mcfarland|1-482-154-0033|9294 Turpis Road|Maple Ridge|532120|Benin
Honorato Stewart|1-410-218-7061|7904 Ipsum Avenue|Neuville|2150|Liberia
Jerome Shannon|1-711-390-7639|P.O. Box 359, 5675 Sapien Street|Stranraer|82135|Solomon Islands
Beck Lindsay|1-628-415-2628|583-7035 Urna. Ave|Burnie|04656|New Zealand
Baker Marshall|1-450-461-0338|P.O. Box 420, 6878 Dis Av.|Sellia Marina|34147|Turks and Caicos Islands
Keane Mccall|1-967-878-2794|Ap #281-7253 Ipsum Rd.|Sabadell|396570|Belgium
Owen Oneil|1-534-138-1520|5185 Eu Road|Paranaguá|88072-242|Equatorial Guinea
Finn Weaver|1-439-954-7374|Ap #627-9632 Egestas Avenue|Berwick|0664 TN|Antarctica
Brett Downs|1-197-457-2769|2558 Feugiat Street|Bavikhove|6692|Seychelles
Perry Rojas|1-378-146-8826|200-391 Netus Av.|Paine|58-126|Falkland Islands
Forrest Giles|1-707-389-3248|1567 Dolor Ave|Akron|2939|Nauru
Sebastian Turner|1-545-247-0400|Ap #943-3610 In St.|Promo-Control|79053|Åland Islands
Colby Melendez|1-279-510-2576|9119 Ut St.|Douai|1091|Macedonia
Lionel Thornton|1-873-325-8471|P.O. Box 179, 525 Amet Road|Bussolengo|0584|Hungary
Evan Livingston|1-694-186-6960|Ap #486-4450 Enim. Rd.|San Martino in Badia/St. Martin in Thurn|85996|Armenia
Brady Shepherd|1-144-683-0680|Ap #770-3167 Ut, Ave|Frankston|44117|Ecuador
Timon Eaton|1-912-891-4213|Ap #554-3818 Dui. Rd.|Mülheim|56651|Gibraltar
Gavin Clarke|1-497-906-5014|354-182 Lacinia Rd.|Stewart|5344|Isle of Man
Ralph Gamble|1-516-123-6254|977-6375 Feugiat Avenue|Builth Wells|Z5J 7GD|French Guiana
Graham Sandoval|1-887-930-9063|3061 Convallis Street|Yeovil|294469|Faroe Islands
Jeremy Woods|1-534-165-2017|4616 Est, Rd.|Giarratana|1903|Antigua and Barbuda
Hammett Vang|1-269-599-0854|Ap #457-3317 Nunc Ave|Portofino|S9P 2J0|Australia
Keefe Bishop|1-116-929-7268|Ap #971-8133 Vel Rd.|Pontedera|133597|El Salvador
Oscar Cooke|1-629-637-2912|Ap #633-4419 In Avenue|Cantalupo in Sabina|7336|Angola
Silas Hurst|1-351-357-5623|Ap #750-9991 Eros Av.|Maiolati Spontini|9006|Sierra Leone
Quinn Chambers|1-107-322-2201|6494 Taciti Avenue|Pathankot|7185|Thailand
Abel Collins|1-450-936-2217|P.O. Box 298, 5291 Fames Av.|Burlington|4092|Sweden
David Dickson|1-200-940-0335|Ap #303-5508 Eu, Ave|Namur|86518|Western Sahara